     2.100          NAVIGATION                              RINEX VERSION / TYPE
fic2rin                                 04/13/2015 00:18:16 PGM / RUN BY / DATE
                                                            END OF HEADER
21 15  4 12 14  0  0.0 -.435847789049D-03 -.375166564481D-11  .000000000000D+00
     .320000000000D+02 -.212500000000D+02  .519093050881D-08 -.641549061471D+00
    -.873580574989D-06  .225065309787D-01  .106617808342D-04  .515358544540D+04
     .504000000000D+05 -.169500708580D-06 -.119529998552D+01  .355765223503D-06
     .933510290531D+00  .166156250000D+03 -.192277753707D+01 -.870429114009D-08
     .379658671450D-09  .100000000000D+01  .184000000000D+04  .000000000000D+00
     .240000000000D+01  .000000000000D+00 -.116415321827D-07  .320000000000D+02
     .432060000000D+05  .400000000000D+01
23 15  4 12 14  0  0.0 -.101404264569D-03 -.250111042988D-11  .000000000000D+00
     .850000000000D+02  .259375000000D+01  .513699969094D-08  .187371688083D+01
     .242143869400D-06  .997107056901D-02  .786781311035D-05  .515363484001D+04
     .504000000000D+05 -.197440385818D-06  .919100636688D+00  .104308128357D-06
     .948852049942D+00  .227031250000D+03 -.269848059565D+01 -.838713507213D-08
    -.384301721995D-09  .100000000000D+01  .184000000000D+04  .000000000000D+00
     .240000000000D+01  .000000000000D+00 -.200234353542D-07  .850000000000D+02
     .432060000000D+05  .400000000000D+01
24 15  4 12 14  0  0.0 -.465172342956D-04 -.682121026330D-12  .000000000000D+00
     .109000000000D+03  .550000000000D+02  .466876590141D-08  .113556297216D+01
     .303611159325D-05  .321770261507D-02  .840611755848D-05  .515368075562D+04
     .504000000000D+05  .130385160446D-07  .194641775488D+01  .502914190292D-07
     .953714529238D+00  .212093750000D+03  .346469569860D+00 -.818176937496D-08
    -.216437586923D-09  .100000000000D+01  .184000000000D+04  .000000000000D+00
     .240000000000D+01  .000000000000D+00  .232830643654D-08  .109000000000D+03
     .432060000000D+05  .400000000000D+01
25 15  4 12 14  0  0.0 -.190860591829D-04 -.341060513165D-11  .000000000000D+00
     .117000000000D+03  .224687500000D+02  .426017745349D-08 -.850039875870D+00
     .111199915409D-05  .449672352988D-02  .446476042271D-05  .515369620895D+04
     .504000000000D+05  .689178705215D-07  .300825524419D+01  .391155481339D-07
     .978306161670D+00  .302437500000D+03  .690861724364D+00 -.824498629392D-08
     .285726187357D-10  .100000000000D+01  .184000000000D+04  .000000000000D+00
     .340000000000D+01  .000000000000D+00  .512227416039D-08  .117000000000D+03
     .432060000000D+05  .400000000000D+01
26 15  4 12 14  0  0.0  .150189734995D-04  .989075488178D-11  .000000000000D+00
     .580000000000D+02  .295937500000D+02  .450161608181D-08 -.280920545500D+01
     .154785811901D-05  .256454688497D-03  .447407364845D-05  .516598934364D+04
     .504000000000D+05 -.912696123123D-07  .300639738066D+01 -.484287738800D-07
     .960405789259D+00  .292718750000D+03  .140580337728D+01 -.819641284207D-08
     .867893294096D-10  .100000000000D+01  .184000000000D+04  .000000000000D+00
     .240000000000D+01  .630000000000D+02  .838190317154D-08  .580000000000D+02
     .432060000000D+05  .400000000000D+01
28 15  4 12 14  0  0.0  .432468019426D-03  .261479726760D-11  .000000000000D+00
     .660000000000D+02  .210312500000D+02  .376408536069D-08 -.238193271100D+01
     .111944973469D-05  .195440719835D-01  .482425093651D-05  .515369595718D+04
     .504000000000D+05  .247731804848D-06  .307838743451D+01  .316649675369D-07
     .988942329509D+00  .299375000000D+03 -.166478994715D+01 -.760495963424D-08
     .134291308058D-09  .100000000000D+01  .184000000000D+04  .000000000000D+00
     .240000000000D+01  .000000000000D+00 -.111758708954D-07  .660000000000D+02
     .432060000000D+05  .400000000000D+01
29 15  4 12 14  0  0.0  .603881198913D-03  .227373675443D-11  .000000000000D+00
     .340000000000D+02 -.832500000000D+02  .422160441820D-08 -.462870409462D+00
    -.430271029472D-05  .135803897865D-02  .705942511559D-05  .515378130531D+04
     .504000000000D+05 -.353902578354D-07 -.217399252726D+01 -.372529029846D-07
     .972649301765D+00  .249750000000D+03 -.702664518169D+00 -.805033532878D-08
    -.892894335490D-10  .100000000000D+01  .184000000000D+04  .000000000000D+00
     .240000000000D+01  .000000000000D+00 -.977888703346D-08  .340000000000D+02
     .432060000000D+05  .400000000000D+01
30 15  4 12 14  0  0.0 -.720536336303D-04  .386535248253D-11  .000000000000D+00
     .290000000000D+02  .430937500000D+02  .450518765915D-08  .520039011198D+00
     .205077230930D-05  .121060211677D-02  .857003033161D-05  .515375776863D+04
     .504000000000D+05 -.149011611938D-07  .203650522743D+01 -.186264514923D-08
     .956255935395D+00  .209250000000D+03  .284225027575D+01 -.813605318499D-08
    -.202508435289D-09  .100000000000D+01  .184000000000D+04  .000000000000D+00
     .240000000000D+01  .000000000000D+00  .325962901115D-08  .290000000000D+02
     .432060000000D+05  .400000000000D+01
31 15  4 12 14  0  0.0  .318785198033D-03 -.102318153949D-11  .000000000000D+00
     .680000000000D+02  .624062500000D+02  .413374361559D-08  .188890282484D+00
     .309012830257D-05  .817223056220D-02  .951439142227D-05  .515376487732D+04
     .504000000000D+05  .670552253723D-07  .199408529032D+01 -.949949026108D-07
     .975403584446D+00  .204781250000D+03 -.521071442226D+00 -.803712049261D-08
    -.163221084528D-09  .100000000000D+01  .184000000000D+04  .000000000000D+00
     .240000000000D+01  .000000000000D+00 -.135041773319D-07  .680000000000D+02
     .432060000000D+05  .400000000000D+01
32 15  4 12 14  0  0.0 -.177891459316D-03  .943600753089D-11  .000000000000D+00
     .470000000000D+02  .219062500000D+02  .525057585042D-08  .838078917214D+00
     .116042792797D-05  .112613004167D-01  .742264091969D-05  .515378508377D+04
     .504000000000D+05  .130385160446D-06 -.508093612138D-01  .171363353729D-06
     .947425931567D+00  .232593750000D+03  .336176248576D-01 -.838213486385D-08
     .110361739867D-09  .100000000000D+01  .184000000000D+04  .000000000000D+00
     .240000000000D+01  .000000000000D+00 -.372529029846D-08  .470000000000D+02
     .432060000000D+05  .400000000000D+01
25 15  4 12 13 59 44.0 -.190855935216D-04 -.341060513165D-11  .000000000000D+00
     .600000000000D+01  .224687500000D+02  .425982029576D-08 -.852374628756D+00
     .111199915409D-05  .449671573006D-02  .446476042271D-05  .515369621468D+04
     .503840000000D+05  .689178705215D-07  .300825537439D+01  .391155481339D-07
     .978306161670D+00  .302437500000D+03  .690862722074D+00 -.824498629392D-08
     .289297764699D-10  .100000000000D+01  .184000000000D+04  .000000000000D+00
     .240000000000D+01  .000000000000D+00  .512227416039D-08  .600000000000D+01
     .435960000000D+05  .400000000000D+01
18 15  4 12 13 59 44.0  .393375288695D-03  .284217094304D-11  .000000000000D+00
     .300000000000D+01  .267187500000D+02  .562666294453D-08 -.171791175175D+01
     .156462192535D-05  .160360706504D-01  .669434666634D-05  .515376273727D+04
     .503840000000D+05  .333413481712D-06 -.151806027468D+00  .912696123123D-07
     .925525157003D+00  .225656250000D+03 -.197761877366D+01 -.839249243814D-08
     .298583865788D-09  .100000000000D+01  .184000000000D+04  .000000000000D+00
     .240000000000D+01  .000000000000D+00 -.111758708954D-07  .300000000000D+01
     .484560000000D+05  .400000000000D+01
 1 15  4 12 13 59 44.0 -.687222927809D-05  .454747350886D-12  .000000000000D+00
     .100000000000D+02 -.412187500000D+02  .447411493627D-08  .965128396032D+00
    -.222213566303D-05  .405894150026D-02  .987574458122D-05  .515366938400D+04
     .503840000000D+05  .428408384323D-07 -.117366810408D+01  .409781932831D-07
     .961850021486D+00  .191187500000D+03  .375402476060D+00 -.799783314185D-08
     .196079596074D-09  .100000000000D+01  .184000000000D+04  .000000000000D+00
     .240000000000D+01  .000000000000D+00  .558793544769D-08  .100000000000D+02
     .495660000000D+05  .400000000000D+01
 1 15  4 12 15 59 44.0 -.686896964908D-05  .454747350886D-12  .000000000000D+00
     .110000000000D+02 -.481250000000D+02  .431553690229D-08  .201470646507D+01
    -.243820250034D-05  .405938737094D-02  .105146318674D-04  .515367404747D+04
     .575840000000D+05 -.596046447754D-07 -.117372601369D+01  .782310962677D-07
     .961851766747D+00  .174375000000D+03  .376005553798D+00 -.795926010656D-08
     .272868508926D-09  .100000000000D+01  .184000000000D+04  .000000000000D+00
     .240000000000D+01  .000000000000D+00  .558793544769D-08  .110000000000D+02
     .504060000000D+05  .400000000000D+01
18 15  4 12 15 59 44.0  .393396243453D-03  .284217094304D-11  .000000000000D+00
     .400000000000D+01  .271250000000D+02  .576952603820D-08 -.667762562420D+00
     .167265534401D-05  .160361879971D-01  .715069472790D-05  .515376321220D+04
     .575840000000D+05 -.113621354103D-06 -.151868014232D+00  .251457095146D-06
     .925525009249D+00  .227687500000D+03 -.197763325216D+01 -.888001274532D-08
     .262153776900D-09  .100000000000D+01  .184000000000D+04  .000000000000D+00
     .240000000000D+01  .000000000000D+00 -.111758708954D-07  .400000000000D+01
     .504060000000D+05  .400000000000D+01
 2 15  4 12 16  0  0.0  .559335574508D-03  .227373675443D-11  .000000000000D+00
     .420000000000D+02 -.430312500000D+02  .466055127352D-08  .249500560215D+01
    -.220164656639D-05  .146065925946D-01  .995025038719D-05  .515380572128D+04
     .576000000000D+05 -.745058059692D-08 -.121031452527D+01 -.294297933578D-06
     .940456377714D+00  .175312500000D+03 -.228466100868D+01 -.793533053837D-08
     .250367571671D-09  .100000000000D+01  .184000000000D+04  .000000000000D+00
     .240000000000D+01  .000000000000D+00 -.204890966415D-07  .420000000000D+02
     .504060000000D+05  .400000000000D+01
